STARLINK-30973          
1 58713U 24002J   26068.66903906 -.00001638  00000+0 -43209-4 0  9994
2 58713  53.1592 229.9278 0001125  82.5186 277.5943 15.30180346122013
PHISAT 2                
1 60470U 24149C   26068.78834181  .00008925  00000+0  31421-3 0  9996
2 60470  97.3806 148.6498 0001175 168.6230 191.5037 15.29548631 86792
